ISS (ZARYA)             
1 25544U 98067A   25363.50072365  .00018472  00000+0  33150-3 0  9993
2 25544  51.6323  59.4638 0003290 318.5670  41.5069 15.49944447545450
CSS (TIANHE)            
1 48274U 21035A   25363.74896411  .00025259  00000+0  30771-3 0  9998
2 48274  41.4672 273.3914 0009440 177.4495 182.6393 15.59870629266686
ISS (NAUKA)             
1 49044U 21066A   25363.50072365  .00018472  00000+0  33150-3 0  9999
2 49044  51.6323  59.4638 0003289 318.5670  41.5069 15.49944447230449
FREGAT DEB              
1 49271U 11037PF  25363.65353209  .00014697  00000+0  32226-1 0  9999
2 49271  51.6547 149.4344 0868954 260.7925  89.3745 12.34673337204026
CSS (WENTIAN)           
1 53239U 22085A   25363.17274057  .00025856  00000+0  31523-3 0  9993
2 53239  41.4674 276.8939 0009230 173.1352 186.9615 15.59842432173842
CSS (MENGTIAN)          
1 54216U 22143A   25363.17274057  .00025856  00000+0  31523-3 0  9994
2 54216  41.4674 276.8939 0009230 173.1352 186.9615 15.59842432158649
SHENZHOU-20 (SZ-20)     
1 63632U 25082A   25363.17274057  .00025856  00000+0  31523-3 0  9991
2 63632  41.4674 276.8939 0009230 173.1352 186.9615 15.59842432255302
PROGRESS-MS 31          
1 64751U 25146A   25363.50072365  .00018472  00000+0  33150-3 0  9994
2 64751  51.6323  59.4638 0003289 318.5670  41.5069 15.49944447  6756
TIANZHOU-9              
1 64786U 25149A   25363.17274057  .00025856  00000+0  31523-3 0  9996
2 64786  41.4674 276.8939 0009230 173.1352 186.9615 15.59842432255303
CREW DRAGON 11          
1 65077U 25166A   25363.50072365  .00018472  00000+0  33150-3 0  9998
2 65077  51.6323  59.4638 0003289 318.5670  41.5069 15.49944447  2147
DRAGON CRS-33           
1 65304U 25186A   25363.50072365  .00018472  00000+0  33150-3 0  9993
2 65304  51.6323  59.4638 0003289 318.5670  41.5069 15.49944447   115
PROGRESS-MS 32          
1 65586U 25204A   25363.50072365  .00018472  00000+0  33150-3 0  9996
2 65586  51.6323  59.4638 0003289 318.5670  41.5069 15.49944447   274
